,Name,street_address,Postcode,Latitude,Longitude
0,Jun-Men Ramen Bar,249 9th Ave,10001,40.748209,-74.00046999999999
1,Fuyu Ramen,4617 Queens Blvd,11104,40.743478,-73.91805699999999
2,Kesté Pizza & Vino,271 Bleecker St,10014,40.73154,-74.00293
3,Ashoka on 2nd Avenue,1718 2nd Ave,10128,40.7798555,-73.95009040000001
4,Craft House,60 Vanduzer St,10301,40.636373,-74.077543
5,Print,653 11th Ave,10036,40.764520000000005,-73.99586
6,Sushi Yasuda,204 E 43rd St,10017,40.751129999999996,-73.97346999999999
7,Hatsuhana Sushi Restaurant,17 E 48th St,10017,40.75703,-73.97691999999999
8,Jaew Hon New York,71-30 Roosevelt Ave,11372,40.7464487,-73.8938216
9,Cafe Dolma,270 Grand St,7302,40.71635,-74.04592
10,Oscar's Place,466 Hudson St,10014,40.7318649,-74.00640109999999
11,Osteria 106,53 W 106 St,10025,40.79894,-73.96174
12,Oxalis,791 Washington Ave,11238,40.673109000000004,-73.96262790000002
13,Bleecker Street Pizza,69 7th Ave S,10014,40.7320627,-74.00365523
14,The Honey Well,3604 Broadway,10031,40.82849,-73.94861999999999
15,Louie & Ernie's Pizza,1300 Crosby Ave,10461,40.838288,-73.828563
16,The Jeffrey Craft Beer & Bites,311 E 60th St,10022,40.7611,-73.96300000000001
17,ICHIRAN - Times Square,152 W 49th St,10019,40.760040000000004,-73.9833
18,Hoja Santa,40-17 30th Ave,11103,40.763819700000006,-73.914523
19,Kitchen Grill Indian Restaurant,914A Fulton St,11238,40.6827929,-73.9644377
20,The Greats Of Craft,983 1st Ave,10022,40.7563277,-73.964548
21,Maestro Pasta,45 John St,10038,40.709329,-74.007891
22,Ramen Danbo,52 7th Ave,11217,40.67611996,-73.97451997
23,Samurai Papa,32 Varet St,11206,40.70289207,-73.94358840000001
24,Ma Kin,7419 Metropolitan Ave,11379,40.7130368,-73.8775219
25,Frijolito's,3446 Broadway,10031,40.82346529,-73.95241722
26,Casa Nomad,1204 Broadway,10001,40.746293,-73.98825
27,Santa Panza,1079 Broadway,11221,40.6947,-73.93068000000001
28,Dough Vale,330 S 3rd St,11211,40.70933,-73.95407
29,Dil-e Punjab Deli,170 9th Ave,10011,40.744820000000004,-74.00206
30,The Shadmoor,1066 2nd Ave,10022,40.75866,-73.96554990000001
31,Eight Turn Crêpe,445 Albee Square W,11201,40.69125089999999,-73.98325890000001
32,Dweebs,1434 Dekalb Ave,11237,40.70037125,-73.92285043
33,Ki Sushi,122 Smith St,11201,40.68764,-73.9901
34,Tabaré,221 S 1st St,11211,40.713046000000006,-73.958968
35,Sushi By Boū - NoMad,32 E 32nd St,10016,40.746041999999996,-73.98345400000001
36,John's of Bleecker Street,278 Bleecker St,10014,40.73158,-74.00332
37,KXBURGERBAR,29-04 Ditmars Blvd,11105,40.776509999999995,-73.91171999999999
38,POKAY,283 Newark Ave,7302,40.72339,-74.04993
39,My Pie,166 West 72nd St,10023,40.77823,-73.98116999999999
40,Harry's Food And Drink,8101 Bergenline Ave,7047,40.80316,-74.0059
41,Forest Hills Station House,106-11 71st Ave,11375,40.7200567,-73.8452604
42,Gallaghers Steakhouse,228 W 52nd St,10019,40.762876,-73.983837
43,Spice Symphony,182 Lexington Ave,10016,40.744721999999996,-73.981202
44,Sauce Pizzeria,345 E 12th St,10003,40.73033,-73.98403
45,Sushi Daizen,47-38 Vernon Blvd,11101,40.74445,-73.9538199
46,New Asha Sri Lanka Restaurant,322 Victory Blvd,10301,40.63420479999999,-74.0855344
47,Supermoon Bakehouse,120 Rivington St,10002,40.71991,-73.9872
48,Dunhuang BBQ 敦煌烤肉,13351 37th Ave,11354,40.76124498,-73.83193499
49,Cuts & Slices,93 Howard Ave,11233,40.6854737,-73.9203186
50,Slimak,4110 4th Ave,11232,40.65143,-74.00787
51,Okonomi,150 Ainslie St,11211,40.712621999999996,-73.9487843
52,Cap't Loui,210 Main St,7024,40.85103,-73.97069
53,IL Triangolo,96-01 Corona Ave,11368,40.742591,-73.86735999999999
54,Mastro's Steakhouse,1285 Ave Of The Americas,10019,40.761105,-73.980164
55,Eim Khao Mun Kai Elmhurst,81-32 Broadway,11373,40.74294141,-73.88327334
56,Defonte's of Staten Island,95 Water St,10304,40.62681078,-74.07660295
57,Zest Ramen,112 Eldridge St,10002,40.71816,-73.99186
58,Mother Earth,116-03 Metropolitan Ave,11418,40.70772195,-73.83587491
59,Da Claudio,21 Ann St,10038,40.71087,-74.00753
60,Yakiniku Futago,37 W 17th St,10011,40.73885187,-73.99412364
61,Luna's Kitchen & Bar,77-02 Roosevelt Ave,11372,40.746926,-73.888524
62,Hot N Juicy Crawfish,243 W 14th St,10011,40.73950993,-74.00160065
63,Nittis,523 9th Ave,10018,40.7567,-73.99410999999999
64,Coarse NY,306 W 13th St,10014,40.739129999999996,-74.00363
65,Gran Morsi,22 Warren St,10007,40.71420524,-74.00775355
66,Fresco's Cantina,12-14 31st Ave,11106,40.768370000000004,-73.93303
67,Craft Culture,59-04 Myrtle Ave,11385,40.70045516,-73.89996529
68,Cinar Turkish Restaurant,677 Palisade Ave,7010,40.82533709,-73.98290992
69,Beijing Dumpling House,88-38 Sutphin Blvd,11435,40.704314700000005,-73.8091804
70,Duane Park,308 Bowery,10012,40.7249172,-73.9925423
71,Bea,403 W 43rd St,10036,40.7591968,-73.99233609999999
72,Belle’s Beef and Shakes,190 Passaic Ave,7109,40.8065742,-74.16000054
73,Mughlai Indian Cuisine,255 W 55th St,10019,40.765394,-73.983272
74,St Kilda Coffee,328 W 44th St,10036,40.75888824,-73.99026489
75,American Cheez,444 7th Ave,11215,40.6631983,-73.9846852
76,Cachapas Brooklyn,2311 Pitkin Ave,11207,40.67333,-73.88705999999999
77,Cafe Ollin,339 E 108th St,10029,40.79122879999999,-73.93953859999999
78,Kaoru,306 E 46th St,10017,40.75202,-73.96977
79,Nefista Vegan Kofteh,106 Macdougal St,10012,40.729414,-74.00073499999999
80,Asian-American Kitchen by Jook Sing,135B North 5th St,11249,40.717009999999995,-73.95918
81,Michael's Salumeria,536 Valley Brook Ave,7071,40.809473,-74.120489
82,Crepe Guru,110 Bright St,7302,40.717937,-74.050175
83,Teppen Ramen,159 E 55th St,10022,40.75929,-73.96879
84,OatMeals,120 W 3rd St,10012,40.730389,-74.00053299999999
85,Sweatshop,232 Metropolitan Ave,11211,40.7149542,-73.959786
86,Cull & Pistol Oyster Bar,75 9th Ave,10011,40.74265894,-74.00592854
87,Uotora,1075 Bergen St,11216,40.676369,-73.950486
88,La Loncheria,41 Wilson Ave,11237,40.702921,-73.929105
89,Aroma Trattoria,932 8th Ave,10019,40.76549,-73.98355
90,Enthaice Thai Kitchen,33-20 31st Ave,11106,40.76308893,-73.92132372
91,Mr.Chicken & Mrs.Tea,150-29 Crossbay Blvd,11417,40.6698487,-73.8423077
92,Reyes Deli & Grocery,532 4th Ave,11215,40.66731,-73.99162
93,El Artesano Restaurant,4101 Bergenline Ave,7087,40.777122,-74.02553499999999
94,Eva's Kitchen,11 W 8th St,10011,40.732822,-73.997152
95,Phil-Am Kusina,556 Tompkins Ave,10305,40.61230647,-74.07124693
96,Saigon Grill & Bar,4521 Ave N,11234,40.618829999999996,-73.93099000000001
97,PROOF Coffee Roasters,65 Nassau St,10038,40.709487,-74.008651
98,Amy Thai Bistro,545 Flatbush Ave,11225,40.660748,-73.960415
99,Jun-Men Ramen Bar,249 9th Ave,10001,40.748209,-74.00046999999999
100,Sergimmo Salumeria,456 9th Ave,10018,40.754296000000004,-73.995498
101,Yoon Haeundae Galbi,8 W 36th St,10018,40.749866,-73.984441
102,GUPJI,149-11A 41st Ave,11355,40.75945,-73.82558
103,Pink Moose,1070 1st Ave,10022,40.75911,-73.96212
104,Aji Sushi House,3606 Ditmars Blvd,11105,40.77420044,-73.90795135
105,Rice Noodle Cart,153 Centre St,10013,40.717931,-74.000283
106,5ive Spice,52 5th Ave,11217,40.681442,-73.977241
107,Vesta,21-02 30th Ave,11102,40.76961,-73.92775999999999
108,Voula,9 Jones St,10014,40.73235,-74.00222
109,Maiella,4610 Center Blvd,11109,40.74704166,-73.956579
110,212 Burgers,252 Prospect Park W,11215,40.65911833,-73.98162756
111,Ela Taverna,2619 23rd Ave,11105,40.776282,-73.915126
112,Harlem Blues Cafe,2144 Fifth Ave,10037,40.81054,-73.93961
113,B&B Restaurant Corporation,165 West 26th St,10001,40.7459112,-73.99360859999999
114,Scarpetta,88 Madison Ave,10016,40.744509,-73.9856
115,Zest Sushi,249 Broome St,10002,40.71783447,-73.98995972
116,La Casa,54 Newark St,7030,40.73689,-74.0301
117,Max Bratwurst und Bier,4702 30th Ave,11103,40.76124539,-73.90946120000001
118,Dario's Restaurant,20 Academy St,7102,40.7373619,-74.1725513
119,Casellula,401 W 52nd St,10019,40.764990000000004,-73.98835
120,Jongro BBQ,22 W 32nd St,10001,40.747514,-73.986884
121,Taim Mobile Falafel & Smoothie Truck,"New York, NY 10014",10014,40.73455429,-74.00621033
122,C&B,178 E 7th St,10009,40.72522719,-73.98163029999999
123,Parlay,4024 8th Ave,11232,40.6464,-73.99861999999999
124,Risotteria Melotti NYC,309 E 5th St,10003,40.72667336,-73.98809195
125,Misirizzi,36 E 4th St,10003,40.7272,-73.99228000000001
126,L'Atelier de Joël Robuchon,85 10th Ave,10011,40.743052,-74.00787199999999
127,Saigon Vietnamese Sandwich Deli,369 Broome St,10013,40.71995820000001,-73.9958631
128,Villa Brazil Cafe Grill,43-16 34th Ave,11101,40.75528961,-73.91800717
129,Lali Restaurant,630 10th Ave,10036,40.76128,-73.99391899999999
130,Juicology Kitchen,115 West 30th St,10001,40.747727000000005,-73.99038399999999
131,Pure Thai Cookhouse,766 9th Ave,10019,40.764291,-73.988159
132,The Cuban Restaurant and Bar,333 Washington St,7030,40.740990000000004,-74.02945
133,Fresh From Hell,326 W 47th St,10036,40.7608265,-73.9889803
134,La Lanterna Di Vittorio,129 MacDougal St,10012,40.73069,-74.00015
135,U-gu,541 Myrtle Ave,11205,40.69393,-73.96284
136,El Jeffe,1483 Fulton St,11216,40.6801601,-73.9419752
137,Joe's Pizza,1435 Broadway,10018,40.75458413,-73.98700392
138,Volare Restaurant,147 W 4th St Frnt,10012,40.73154344,-74.0006125
139,El Born,651 Manhattan Ave,11222,40.72434792,-73.95122261
140,B Squared,679 9th Ave,10036,40.761550899999996,-73.9906616
141,NY Gyro King,588A Bloomfield Ave,7003,40.793704,-74.198249
142,Russ & Daughters Cafe,127 Orchard St,10002,40.71962532,-73.98957589
143,19 Cleveland By Nish Nush,19 Cleveland Pl,10012,40.72164,-73.99722
144,Ruby's Cafe,219 Mulberry St,10012,40.72232879999999,-73.996326
145,Burmese Bites,5 Ct Sq W,11101,40.75820766,-73.942825
146,Dekalb Market Hall,445 Albee Square W,11201,40.691025,-73.983311
147,Matsuri,39-56 61st St,11377,40.7458357,-73.90354359999999
148,Pisticci,125 La Salle St,10027,40.8141624,-73.960288
149,La Shuk,1569 Lexington Ave,10029,40.78863,-73.94875
150,Renegades of Sunset,254 36th St,11232,40.655908000000004,-74.007526
151,General Store by Char Sue,119 Essex St,10002,40.719625,-73.98791526
152,A&A Bake and Double and Roti Shop,1337 Fulton St,11216,40.68043,-73.94795
153,Pabade Cafe and Bakery,135 East 110 St,10029,40.79506,-73.94474
154,Awesum Dimsum,160 E 23rd St,10010,40.73887,-73.98366
155,Hole In The Wall,15 Cliff St,10038,40.70837,-74.00563000000001
156,Chez Nick,1737 York Ave,10128,40.779014000000004,-73.945238
157,The Brazen Tavern,356 W 44th St,10036,40.75932693,-73.99131012
158,Nonnas 1977,41-02 Astoria Blvd,11103,40.76851,-73.90997
159,Douska,63 Delancey St,10002,40.7191369,-73.99089980000001
160,Macoletta,28-15 24th Ave,11102,40.77324229999999,-73.9164153
161,The Little Owl,90 Bedford St,10014,40.73238083,-74.005301
162,Milkflower,3412 31st Ave,11106,40.7628961,-73.92070809999998
163,Ippudo Westside,321 W 51st St,10019,40.76344,-73.98661
164,Taste of Bengal,2827 31st St,11102,40.76772095,-73.92046751
165,Lee's Tavern,60 Hancock St,10305,40.588756,-74.095153
166,Dar 525,525 Grand St,11211,40.711265999999995,-73.950317
167,Tony's Di Napoli,147 W 43rd St,10036,40.756409999999995,-73.98546999999999
168,International Wings Factory,1762 1st Ave,10128,40.78018345,-73.94675427
169,Sushi Yasaka,251 W 72nd St,10023,40.779583,-73.983482
170,Marea,240 Central Park S,10019,40.76742137,-73.98105544
171,Earl's Beer & Cheese,1259 Park Ave,10029,40.787290000000006,-73.95152
172,Luke's Lobster Upper East Side,242 E 81st St,10028,40.77473085,-73.95454919
173,Olea,171 Lafayette Ave,11238,40.6877844,-73.9706046
174,Liu's Shanghai,1869 Bath Ave,11214,40.60264119,-74.00387665
175,El Rey Del Taco Truck,33-01 30th Ave,11103,40.766220000000004,-73.91933
176,The Islands,671 Washington Ave,11238,40.67705238,-73.96341696
177,Rustic Table,504 W 42nd St,10036,40.759624,-73.9958265
178,Hobby's Delicatessen & Restaurant,32 Branford Pl,7102,40.73509,-74.17438
179,Il Falco,21-50 44th Dr,11101,40.74765957,-73.94553191
180,Double Zero,65 2nd Ave,10003,40.72612879999999,-73.9896645
181,Mama Chicken,252 Broad Ave,7650,40.847209899999996,-73.99807
182,David's Brisket House and Deli,533 Nostrand Ave,11216,40.679434,-73.949515
183,Hug Esan,77-16 Woodside Ave,11373,40.743646500000004,-73.8873753
184,Ippudo NY,65 4th Ave,10003,40.730920000000005,-73.99015
185,City Tamale,1316 Oak Point Ave,10474,40.810159999999996,-73.884653
186,Il Fornaio Bakery Cafe,29-14 30th Ave,11102,40.76758036,-73.92324286
187,Maison Pickle,2315 Broadway,10024,40.7870473,-73.97813609999999
188,Lucia Pizza,136-55 Roosevelt Ave,11354,40.76032,-73.82813
189,Gersi,316 Court St,11231,40.683438,-73.995711
190,District Saigon,37-15 Broadway,11103,40.7596365,-73.9199343
191,Family Corner Restaurant,2102 31st St,11105,40.77795029,-73.90898132
192,Au Cheval,33 Cortlandt Alley,10013,40.718387799999995,-74.0015522
193,Pearl Oyster Bar,18 Cornelia St,10014,40.731409899999996,-74.00197
194,Keens Steakhouse,72 W 36th St,10018,40.75071,-73.98652
195,Vietnaam,1700 2nd Ave,10128,40.7791481,-73.95041656
196,LOVE Korean BBQ,319 5th Ave,10016,40.747118,-73.985056
197,Piccoli Trattoria,522 6th Ave,11215,40.665184,-73.98654
198,B&H Dairy,127 2nd Ave,10003,40.728458399999994,-73.98816679999999
199,Ralpho's Pizza,794 Broad Ave,7657,40.839448299999994,-74.00396070000001
200,Vite Vinosteria,31-05 34th St,11106,40.76297343,-73.92119564
201,Sushi Ryusei,216 E 39th St,10016,40.74845,-73.97513000000001
202,Bruno's Ristorante,158-22A Crossbay Blvd,11414,40.659599299999996,-73.84339905
203,La Pulperia Hell's Kitchen,371 W 46th St,10036,40.76090378,-73.99052035
204,nonono,118 Madison Ave,10016,40.74545,-73.98499
205,Sushi Lab,132 W 47th St,10036,40.758417,-73.983301
206,Spring Shabu-Shabu,136-20 38th Ave,11354,40.76095271,-73.82957732
207,Cypress Inn,1702 Stanhope St,11385,40.705554,-73.915183
208,Sushi Zo | New York,88 W 3rd St,10012,40.7297821,-73.9992218
209,Brookside Market,43-15 Queens Blvd,11104,40.7437641,-73.9208344
210,The Cast Iron Pot,356 Bergen Blvd,7022,40.82128,-73.99911
211,Norma's Corner Shoppe,59-02 Catalpa Ave,11385,40.70224,-73.90075
212,C Greto's Modern Italian,132 Park Ave,7073,40.8324467,-74.09711425
213,Raku it's Japanese,212 East 52nd St,10022,40.756591,-73.969306
214,Pierre Loti Midtown,300 E 52nd St,10022,40.75587175,-73.96735506
215,Ix Restaurant,43 Lincoln Rd,11225,40.66091484,-73.96138925
216,Ringolevio,490 Humboldt St,11222,40.71907,-73.94337
217,Dive 106,938 Amsterdam Ave,10025,40.800779999999996,-73.96587
218,Poketeria,3 E 36th St,10016,40.7496948,-73.98318940000001
219,Le French Diner,188 Orchard St,10002,40.72182746,-73.98796899999999
220,Katsune Donkatsu Cafe,1400 Anderson Ave,7024,40.845420000000004,-73.97846
221,Menya Sandaime,1638 Parker Ave,7024,40.849738,-73.9677057
222,Sakagura,211 E 43rd St,10017,40.7516467,-73.97294893
223,Hot Potato House,109 Oriental Blvd,11235,40.57709038,-73.95266059999999
224,Chela & Garnacha,33-09 36th Ave,11106,40.75571715,-73.92781129
225,The Ryerson,698 Nostrand Ave,11216,40.67478,-73.95018
226,Roy's Fish Market,1138 1st Ave,10065,40.76173473,-73.96041717
227,Vetro Restaurant & Lounge,164-49 Crossbay Blvd,11414,40.649382,-73.837154
228,Umami Sushi,50 Greenwich Ave,10011,40.73571,-74.00044
229,Giuseppina's,691 6th Ave,11215,40.660343100000006,-73.99077415
230,Buddakan,75 9th Ave,10011,40.74227627,-74.0048001
231,Cronin & Phelan's,38-14 Broadway,11103,40.7589,-73.91941
232,Lazy Suzy Cafe & Shop,703 Hart St,11221,40.699459999999995,-73.92549
233,Forno Rosso,327 Gold St,11201,40.694466999999996,-73.98293000000001
234,Cafetal Social Club,285 Mott St,10012,40.724308,-73.994457
235,Zenkichi New York,77 N 6th St,11249,40.71897,-73.96081
236,Parker,6504 Park Ave,7093,40.78953,-74.00531
237,By the Way Bakery,2442 Broadway,10024,40.791002299999995,-73.9742942
238,Taureau,558 Broome St,10013,40.724511,-74.005701
239,Deninos Pizzeria & Tavern - Staten Island,524 Port Richmond Ave,10302,40.63022667,-74.14027549
240,Capizzi,547 9th Ave,10018,40.75744,-73.99356999999999
241,Wheated,905 Church Ave,11218,40.6465969,-73.97049503
242,Osteria 57,57 W 10th St,10011,40.73467,-73.99786
243,Me & Tommy's Restaurant and Bar,4 Essex St,7109,40.79498849,-74.15119171
244,Rosa's Pizza,6265 Fresh Pond Rd,11385,40.712192,-73.899997
245,Der Pioneer,737 Church Ave,11218,40.64606,-73.97216999999999
246,Mysttik Masaala,250 Park Ave,10172,40.7551374,-73.9760147
247,Aska,47 South 5th St,11249,40.71226,-73.96641
248,Banter,169 Sullivan St,10012,40.72787,-74.0010999
249,Honest Chops Butchery,319 E 9th St,10003,40.7289505,-73.9861298
250,Green Zenphony,95-26 Queens Blvd,11374,40.730219,-73.863865
251,Botte Bar,25-07 Broadway,11106,40.76334181,-73.92817509
252,The Factory 380,380 3rd Ave,10016,40.741640000000004,-73.98132
253,Silver Rice,638 Park Pl,11238,40.67421236,-73.95688914
254,Zyara NY,57 Clinton St,10002,40.719640000000005,-73.98507
255,Kimbap Lab,238 Bedford Ave,11249,40.71611,-73.95974
256,Barboncino Pizza & Bar,781 Franklin Ave,11238,40.672059999999995,-73.95716999999999
257,Smith Gourmet Deli,126 Smith St,11201,40.687509999999996,-73.99006999999999
258,Snack Stop,316 Broad Ave,7605,40.86158270000001,-73.98830244
259,Silver Light Tavern,689 Lorimer St,11211,40.71747,-73.95005
260,St Tropez West Village,304 W 4th St,10014,40.73704,-74.00386
261,SUROSS Thai Bistro,4131 Broadway,10033,40.846016,-73.9387367
262,L & B Spumoni Gardens,2725 86th St,11223,40.594715,-73.981316
263,Hortus NYC,271 5th Ave,10016,40.745481,-73.986518
264,Piz-zetta,90 Livingston St,11201,40.69128341,-73.99060292
265,Lechonera La Isla,254 E 125th St,10035,40.802710999999995,-73.934099
266,Boilery - East Village,58 3rd Ave,10003,40.731120000000004,-73.98898
267,Ramen Hood,62 Spring St,10012,40.72231127,-73.99737741
268,Sam's Falafel Stand,Cedar St And Broadway,10006,40.70903968,-74.01133809
269,The Burp Kitchen,7000 Kennedy Blvd E,7093,40.790152,-74.000747
270,Rawsome Treats,158 Orchard St,10002,40.720868700000004,-73.98867395
271,Snapdragon Coffee & Social,190 Monticello Ave,7304,40.72112,-74.06999
272,Pelicana Chicken,417 E Brinkerhoff Ave,7650,40.841249,-73.98822
273,Margherita Pizza,163-04 Jamaica Ave,11432,40.70458453,-73.79673606
274,Giano Restaurant,126 E 7th St,10009,40.72622566,-73.9840574
275,L'Antagoniste,238 Malcolm X Blvd,11221,40.68501,-73.92961
276,Boran,462 Court St,11231,40.6782327,-73.998062
277,1803,82 Reade St,10007,40.715498,-74.007178
278,Kona Coffee and Company,57 2nd Ave,10003,40.72587,-73.98988
279,Jora Restaurant & Bar,47-46 11th St,11101,40.7438054,-73.9515007
280,Hank's Juicy Beef,84 Chambers St,10007,40.7143487,-74.0072147
281,Nostro Ristorante,710 5th Ave,11215,40.660738,-73.99428499999999
282,Banh Mi Saigon,198 Grand St,10013,40.71929503,-73.99671602
283,Jajaja Plantas Mexicana,63 Carmine St,10014,40.72979,-74.00455
284,ZuriLee Restaurant,755 Flatbush Ave,11226,40.6545,-73.95945999999999
285,Bombay Grill,1176 Bedford Ave,11216,40.6839,-73.95417990000001
286,Benjamin Steakhouse,52 E 41st St,10017,40.7518,-73.97896
287,Sugarburg,519 Metropolitan Ave,11211,40.71411822,-73.95160619
288,Rhythm & Beets Juice Café,100-04 101st Ave,11416,40.685159999999996,-73.84185
289,Pitchounette81,245 East 81st St,10028,40.77496,-73.95437
290,The NoMad Restaurant,1170 Broadway,10001,40.7449,-73.98848199999999
291,Pye Boat Noodle,35-13 Broadway,11106,40.76043,-73.92152
292,Arepas Cafe,3307 36th Ave,11106,40.755835,-73.92769100000001
293,Rangoli Exquisite Indian Cuisine,1393 A 2nd Ave,10021,40.7693,-73.95823
294,ERT - El Rico Tinto Restaurant,73-18 Northern Blvd,11372,40.7546065,-73.8930553
295,Café Beit,158 Bedford Ave,11249,40.718678000000004,-73.95710940000001
296,Her Name Is Han,17 E 31st St,10016,40.746261600000004,-73.98473358
297,Tuome,536 E 5th St,10009,40.72412483,-73.98289063
298,Oiji,119 1st Ave,10003,40.727270000000004,-73.98585
299,Vite Vinosteria,31-05 34th St,11106,40.76297343,-73.92119564
300,Fedoroff's Roast Pork,178 N 10th St,11211,40.7189526,-73.9555245
301,The Greeks,461 Elm St,7032,40.769290000000005,-74.14145
302,MAKIINNY,32 E7th St,10003,40.72831,-73.98914
303,Cafe Triskell,33-04 36th Ave,11106,40.75570279,-73.92801357
304,South Brooklyn Foundry,6909 3rd Ave,11209,40.63539,-74.02601999999999
305,ROKC,3452 Broadway,10031,40.823505100000006,-73.95224250000001
306,Bolivian Llama Party,1000 S 8th Ave,10019,40.694983,-73.991036
307,Wabi Sabi,407 Broad St,7003,40.807359999999996,-74.1921
308,Calle Dao - Bryant Park,38 W 39th St,10018,40.752288899999996,-73.98414035
309,Java Day Cafe,16009 Northern Blvd,11358,40.762975299999994,-73.8052998
310,Forlini's Restaurant,93 Baxter St,10013,40.71695,-73.99956999999999
311,Ahimsa Garden,265 E 10th St,10009,40.728491,-73.98317800000001
312,Razzoli's Little Italy,599 Ridge Rd,7031,40.79785599,-74.12660798
313,Dunhuang Lanzhou Beef Noodle,136-93 37th Ave,11354,40.76244441,-73.82779140000001
314,Don Chingon,216 Flatbush Ave,11217,40.68104312,-73.97524033
315,Luigi's Pizza,686 5th Ave,11215,40.66163,-73.99334
316,Indian Accent,123 W 56th St,10019,40.76433446,-73.97873129
317,Mom's Kitchen & Bar,701 9th Ave,10019,40.76247,-73.9901
318,Brothers Taverna,23-01 Steinway St,11105,40.770927,-73.908159
319,Cafe Patoro,223 Front St,10038,40.707272100000004,-74.00231604
320,Lioni Italian Heroes,7803 15th Ave,11228,40.61572,-74.00482
321,Handsome Rice,133 E 31st St,10016,40.744659999999996,-73.98123000000001
322,Pelicana Chicken - Flushing,41-23 162nd St,11358,40.76075,-73.803787
323,Taboonette,30 E 13th St,10003,40.73460388,-73.99282837
324,Modern Love Brooklyn,317 Union Ave,11211,40.70983,-73.95109000000001
325,Hao Noodle Chelsea,343 W 14th St,10014,40.7406999,-74.00435999999999
326,Taci's Beyti,1953 Coney Island Ave,11223,40.609559999999995,-73.96209
327,Murasaki,4644 Vernon Blvd,11101,40.74577649,-73.95325547
328,Kitchen 79,37-70 79th St,11372,40.747551,-73.8868866
329,Kame Ramen,330 8th Ave,10038,40.74748811,-73.99664886
330,Scalini Fedeli,165 Duane St,10013,40.71739644,-74.00932775
331,Holy Pita,10 Clermont Ave,11205,40.697559999999996,-73.9719
332,Rumba Cubana,235 Pavonia Ave,7302,40.72748,-74.043858
333,The Chick Shop,805 3rd Ave,10022,40.75537,-73.97054
334,The Lobster Place,75 9th Ave,10011,40.74274139,-74.00601181
335,Prince Tea House,31-47 Steinway St,11103,40.76008264,-73.91793009
336,Mazzat,208 Columbia St,11231,40.684942,-74.003028
337,Lilly's Craft and Kitchen,675 9th Ave,10036,40.761379999999996,-73.99070999999999
338,Falafel Tanami,1305 E 17th St,11230,40.6196559,-73.9582359
339,Cafe Belle,280 Mulberry St,10012,40.72437,-73.99509
340,Skewr Kabob Kitchen,34 East 23rd St,10010,40.7405,-73.98751999999999
341,Laly's Restaurant,75-19 Roosevelt Ave,11372,40.747207,-73.8897241
342,Cuisine By Claudette,143 Beach 116th St,11694,40.5788,-73.83699
343,Ammazzacaffè,702 Grand St,11211,40.7113172,-73.9446243
344,Kyo Ya,94 E 7th St,10009,40.7267,-73.98534000000001
345,Sushi by Bou Flatiron,49 W 20th St,10011,40.74094,-73.9937
346,Amber Steak House,119 Nassau Ave,11222,40.72446417,-73.94901804
347,DokoDemo,89 E 4th St,10003,40.72638,-73.98964000000001
348,Companion Cafe,64 6th Ave,11217,40.6809842,-73.97457209999999
349,19 Cafe,84 Manhattan Ave,11206,40.70515,-73.9444199
350,Hansol Nutrition Center,160-26 Northern Blvd,11358,40.762701,-73.8053413
351,Gelateria Gentile,253 Wythe Ave,11249,40.7161757,-73.9637628
352,De Mole,2 Hope St,11211,40.713770000000004,-73.95786
353,5th Avenue Market & Gourmet Deli,185 5th Ave,11217,40.677054999999996,-73.979725
354,Blueprint,196 5th Ave,11217,40.6769,-73.980411
355,Sottocasa Pizzeria,298 Atlantic Ave,11201,40.688285,-73.989006
356,Defontes,379 Columbia St,11231,40.67894444,-74.00536913
357,Nai Tapas,85 2nd Ave,10003,40.726794899999994,-73.98928149999999
358,Cafe Alula,252 Franklin St,11222,40.734609999999996,-73.95822
359,Gelso & Grand,186 Grand St,10013,40.71940895,-73.99737779
360,Van Hook Cheese & Grocery,528 Jersey Ave,7302,40.720929999999996,-74.04621999999999
361,Taverna Kyclades,3307 Ditmars Blvd,11105,40.775322700000004,-73.909217
362,Ba'al Cafe & Falafel,71 Sullivan St,10012,40.724469899999995,-74.0039
363,Nicks Bistro,104-20 Metropolitan Ave,11375,40.709937,-73.84830589
364,The Dumpling Shop,124 2nd Ave,10003,40.72819806,-73.98774459
365,JeJu Noodle Bar,679 Greenwich St,10014,40.73304,-74.00734
366,Loring Place,21 W 8th St,10011,40.73299408,-73.99753571
367,Soup Dumpling Plus,1550 Lemoine Ave,7024,40.847570000000005,-73.9706099
368,15 Fox Place,15 Fox Pl,7306,40.733709999999995,-74.07251
369,The Cast Iron Pot 2,320 Bergen Blvd,7022,40.82018,-73.99984
370,Chow House,181 Bleecker St,10012,40.72915,-74.00072
371,Love Cafe,283 Pleasant Ave,10029,40.79458274,-73.93370504
372,Tian Jin Dumpling House,37-11 Main St,11355,40.761393,-73.830363
373,Blue Hill,75 Washington Pl,10011,40.73206403,-73.9996931
374,Dayi'nin Yeri,333 Palisade Ave,7010,40.81584,-73.991
375,Punchline Juice Bar,638 Nostrand Ave,11216,40.67656316,-73.9500241
376,Leo's Latticini Mama's,46-02 104th St,11368,40.746219,-73.860061
377,Bernie's,332 Driggs Ave,11222,40.72191239,-73.95059300000001
378,The Panorama of My Silence-Heart,84-73 Parsons Blvd,11432,40.712428100000004,-73.8063559
379,DOMODOMO,140 W Houston St,10012,40.72803,-74.00166999999999
380,Krupa Grocery,231 Prospect Park W,11215,40.6598242,-73.980508
381,Sons of Thunder,204 E 38th St,10016,40.747859999999996,-73.97589
382,Doctor's Cave Cafe,856 Marcy Ave,11216,40.68412342,-73.94701998
383,Evelina,211 Dekalb Ave,11205,40.689721999999996,-73.971003
384,PokeRice,162 West 4th St,10014,40.73187,-74.00138000000001
385,Rahi,60 Greenwich Ave,10011,40.7360271,-74.0005436
386,Cassava House,2270 First Ave,10035,40.79634,-73.93477
387,Lokal 83 Mediterranean Kitchen,473 Columbus Ave,10024,40.7842696,-73.9734941
388,Agora Turkish Restaurant,1565 2nd Ave,10028,40.77492,-73.95411999999999
389,Summer Salt,30 East 23rd St,10010,40.74057,-73.98768000000001
390,Lan Ting Hotpot,705 59th St,11220,40.637494000000004,-74.010961
391,Luigi's Pizzeria,326 Dekalb Ave,11205,40.6897,-73.965369
392,Rex,864 10th Ave,10019,40.768877,-73.98857882
393,The Flatiron Room,37 W 26th St,10010,40.74452,-73.99049000000001
394,Esme,999 Manhattan Ave,11222,40.73320339,-73.95496677
395,GLUR Thai,144 W 19th St,10011,40.741209999999995,-73.99665
396,Caracas Arepa Bar,91 E 7th St,10009,40.726965500000006,-73.9854223
397,Tzarevna,154 Orchard St,10002,40.72082,-73.98874
398,Loukoumi Taverna,45-07 Ditmars Blvd,11105,40.770790000000005,-73.90268
399,Pheasant,445 Graham Ave,11211,40.7185,-73.9452
400,The Factory Bar & Restaurant,1612 Madison St,11385,40.698844799999996,-73.90913409999999
401,Il Tinello Ristorante Italiano,16 W 56th St,10019,40.76256,-73.97565999999999
402,Postmark Cafe,326 6th St,11215,40.6710865,-73.9852
403,Ise Restaurant,63 Cooper Sq,10003,40.729102399999995,-73.9900618
404,The Rag Trader & Bo Peep Cocktail and Highball Store,70 W 36th St,10018,40.75059,-73.98628000000001
405,Charter Coffeehouse,309 Graham Ave,11211,40.713328999999995,-73.944478
406,Chuan Tian Xia 川天下,5502 7th Ave,11220,40.6397,-74.00913100000001
407,The Wayland,700 E 9th St,10009,40.7251,-73.9778
408,Greecologies,379 Broome St,10013,40.720387,-73.996581
409,Pastosa Ravioli,7425 New Utrecht Ave,11204,40.615829999999995,-73.99969
410,Punjabi Grocery & Deli,114 E 1st St,10009,40.72272254,-73.98662246
411,Saiguette,935 Columbus Ave,10025,40.79902,-73.96281
412,The Royal Underground,36-10 30th Ave,11103,40.76463,-73.91716
413,Utopia Bagels,1909 Utopia Pkwy,11357,40.77989684,-73.79300516
414,La Ñapa,656 Nostrand Ave,11216,40.675959999999996,-73.95007
415,The Independent,147 W 40th St,10018,40.75468,-73.98744
416,Wowfulls,90 Kent Ave,10002,40.721231,-73.962162
417,Burger & Lobster,39 W 19th St,10011,40.74007,-73.99344
418,Alfie's Pizza,8608 117th St,11418,40.69983,-73.83291
419,Hamido Seafood,3308 Ditmars Blvd,11105,40.775000799999994,-73.9095623
420,Penny House Cafe,732 Washington Ave,11238,40.676044,-73.963713
421,Cellar 335,335 Newark Ave,7302,40.724969200000004,-74.0515195
422,Ltauha Restaurant,55-50 Myrtle Ave,11385,40.6998889,-73.9067463
423,Campania Coal Fired Pizza,9824 4th Ave,11209,40.61360931,-74.03333282
424,Roasted Masala,914 Columbus Ave,10025,40.79846,-73.96366
425,Mia's Bakery,139 Smith St,11201,40.687019899999996,-73.99012990000001
426,Snax Spot,534 9th Ave,10018,40.75674,-73.993461
427,Good Thanks NYC,131A Orchard St,10002,40.71972,-73.98952
428,Piccola Cucina Osteria,196 Spring St,10012,40.72506,-74.00322
429,Semicolon Cafe,77 Hudson St,7302,40.714764,-74.034663
430,Blue Cups,3804 61st St,11377,40.7475735,-73.90253050000001
431,Brooklyn Bagel & Coffee Company,286 8th Ave,10001,40.746183,-73.997642
432,Monarch Restaurant,146 Metropolitan Ave,11249,40.71595,-73.96222
433,Nerai,55 E 54th St,10022,40.760258,-73.97308570000001
434,Pico,419 Beach 129th St,11694,40.57829,-73.849648
435,Paulie Gee's,60 Greenpoint Ave,11222,40.729546,-73.958568
436,Izakaya MEW,53 W 35th St,10001,40.75018531,-73.98632035
437,LĒNA,137 Eldridge St,10002,40.719134999999994,-73.99175799999999
438,NY Pizza Suprema,413 8th Ave,10001,40.75020599,-73.99532318
439,Seed + Mill,409 W 15th St,10011,40.7420723,-74.0056454
440,Mi Noodle Bar,391 2nd Ave,10010,40.7377,-73.98130400000001
441,Balvanera,152 Stanton St,10002,40.72063,-73.98539
442,Blackbeard Ramen,607 Gorge Rd,7010,40.82435891,-73.98769053
443,Sushi Time,72-42 Austin St,11375,40.7185591,-73.841229
444,Marc Forgione,134 Reade St,10013,40.71647,-74.0095599
445,Musashi Asian Cuisine,495 Grand St,11211,40.71113586,-73.95142365
446,Mixtape Bushwick,1533 Myrtle Ave,11237,40.699494200000004,-73.9140196
447,Atera,77 Worth St,10013,40.71694,-74.0057
448,Lamb Noodle Soup 滋補羊肉燴面,4128 Main St,11355,40.757207,-73.829389
449,Antica Ristorante,8 Stone St,10004,40.70393551,-74.01217318
450,Mottley Kitchen,402 E 140th St,10454,40.81008562,-73.92168683
451,Mellow Yellow,1729 1st Av,10128,40.77929,-73.94785
452,Very Fresh Noodles,409 W 15th St,10011,40.74207,-74.00565
453,KanaHashi,981 Manhattan Ave,11222,40.73263,-73.95482
454,Unico,156 Sullivan St,10012,40.72743273,-74.0017169
455,Samba Kitchen,661 9th Ave,10036,40.76095,-73.99115
456,The Greek,458 Greenwich St,10013,40.7237145,-74.0096166
457,Black Rail Coffee,800 Jackson St,7030,40.74897342,-74.03823975
458,Da Raffaele,883 First Ave,10022,40.75353869,-73.96660108
459,Kabob On The Cliff,66 Park Ave,7070,40.82777,-74.10370999999999
460,Appetizzio's Italian Specialties & World Market,5 Ridge Rd,7071,40.8156574,-74.1136625
461,Caledonia Bar,1609 2nd Ave,10028,40.776327,-73.953213
462,Spice Kitchen,71-04 Grand Ave,11378,40.72766,-73.89191
463,Mama's Noodle House,1782 Bay Ridge Ave,11204,40.61686145,-73.99304364
464,Chama Mama,149 W 14th St,10011,40.7384,-73.99892
465,Lucali,575 Henry St,11231,40.6818,-74.00024
466,Pylos,128 E 7th St,10009,40.726079999999996,-73.98415
467,Porto By Antonio - Wood Burning Pizza & Pasta,8921 Old River Rd,7047,40.80488345,-73.99344166
468,Trattoria La Sorrentina,7831 Bergenline Ave,7047,40.80174,-74.00698
469,Mamoun's Falafel,119 MacDougal St,10012,40.7302874,-74.00043829999998
470,Banyan Cafe,110 Bright St,7302,40.717937,-74.050175
471,Sweet Moment,106 Mott St,10013,40.71763,-73.99714
472,Hudson Kebab House,5402 Park Ave,7093,40.78216,-74.01208000000001
473,Johny's Luncheonette,124 W 25th St,10001,40.7444458,-73.99307251
474,Safari Restaurant NYC,219 W 116th St,10026,40.80381,-73.9535
475,Benemon,108 E 4th St,10003,40.72551,-73.98838
476,Atoboy,43 E 28th St,10016,40.74364,-73.98456
477,The Winslow Gin House And Eatery,243 E 14th St,10003,40.73277664,-73.98521423
478,Würstbar,516 Jersey Ave,7302,40.72038,-74.04648
479,Cucina Fresca,2110 Richmond Rd,10306,40.581292,-74.111488
480,Red Peony Chinese Cuisine,24 W 56th St,10019,40.76278,-73.97589
481,The Fire Pit Grill,9 Mt Vernon,7660,40.85698,-74.02749
482,Gomi Korean Wine Bar,186 Ave A,10009,40.72886,-73.9813
483,Lion Lion,332 E 116th St,10029,40.7962659,-73.9365906
484,Natural Blend,769A Washington Ave,11238,40.673877600000004,-73.96287629999999
485,Petite Boucherie,14 Christopher St,10014,40.73382,-74.00041999999999
486,Cardoncello DiVino,43 W 27th St,10001,40.74519,-73.98985
487,Daily Provisions,103 E 19th St,10003,40.73768,-73.98766850000001
488,Werkstatt,509 Coney Island Ave,11218,40.645298,-73.97023399999999
489,Yummy Yummy In My Tummy,467 Union Ave,11211,40.71472838,-73.95176243
490,Naked Dog,47 Java St,11222,40.73127207,-73.95934936
491,The Thirsty Koala,35-12 Ditmars Blvd,11105,40.774415999999995,-73.908739
492,Uncle Gussy's,345 Park Ave,10154,40.75768133,-73.97329537
493,Sushi Nakazawa,23 Commerce St,10014,40.73174652,-74.00454938
494,The Coupe Cocktail Bar,379 Van Duzer St,10304,40.62879904,-74.07974638
495,Juanchi's Burger,225 S 1st St,11211,40.713003,-73.958863
496,Bobwhite Counter,94 Ave C,10009,40.72365,-73.97899
497,Mughlai Indian Cuisine,1724 2nd Ave,10128,40.78002,-73.94978
498,Xe May Sandwich Shop,96 Saint Marks Pl,10009,40.7272,-73.98493
499,Papilles,127 E 7th St,10009,40.72637,-73.98403
500,Anthony's Butcher & Deli,7324 3rd Ave,11209,40.632309,-74.0277176
501,Layaly Cafe,4409 Broadway,11103,40.75741498,-73.91536535
502,Miyabi Asian Fusion,1348 Forest Ave,10302,40.6258092,-74.13456415
503,Georgian Deli and Bakery,2270 86th St,11214,40.600711,-73.99221
504,Stanley's Pierogi,5401 Metropolitan Ave,11385,40.71334,-73.910362
505,Cumin N Eat,700 Plaza Dr,7094,40.785866999999996,-74.044791
506,Avant Garden,130 E 7th St,10009,40.7261499,-73.98402
507,Silky Kitchen,137 E 13th St,10003,40.73297,-73.98829
508,Bangklyn East Harlem,2051 2nd Ave,10029,40.7903,-73.94306999999999
509,Sunny and Annie's,94 Ave B,10003,40.724653,-73.981702
510,Barano,26 Broadway,11249,40.710372,-73.96794
511,Coffee Project New York,78 Rockwell Pl,11217,40.68759279,-73.97924911
512,Pho Metro,31-16 Farrington St,11354,40.7685908,-73.83363840000001
513,Thai Holic,372 Myrtle Ave,11205,40.693005,-73.97128599999999
514,Bar Verde,65 2nd Ave,10003,40.72608491,-73.98973614
515,TØRST,615 Manhattan Ave,11222,40.723394899999995,-73.950856
516,Cafe Per Tutti,7709 Bergenline Ave,7047,40.80066,-74.007787
517,Jacob's Pickles,509 Amsterdam Ave,10024,40.78665044,-73.97552848
518,Peppino's Brick Oven Pizza & Restaurant,469 5th Ave,11215,40.668221,-73.986936
519,Cafe Nube,940 4th Ave,11232,40.65486947,-74.00426946
520,Mama Rao Cucina Italiana,6408 11th Ave,11219,40.6291809,-74.0057526
521,ON,110 Madison Ave,10016,40.745020000000004,-73.98513
522,Mariachi Grill,262 Ridge Rd,7071,40.809509999999996,-74.11764000000001
523,Patsy's Pizzeria,450 Dean St,11217,40.6818695,-73.97618100000001
524,Souk El Shater,43-03 Queens Blvd,11104,40.74385,-73.92113
525,Olio e Piú,3 Greenwich Ave,10014,40.733826,-73.999852
526,Joe's Steam Rice Roll 石磨腸粉王,136-21 Roosevelt Ave,11354,40.76012,-73.82941
527,Tacos El Bronco,37th St & 5th Ave,11232,40.65237,-74.00274
528,Hummus Market,361 Graham Ave,11211,40.71541,-73.94469000000001
529,The Boil,139 Chrystie St,10002,40.71974,-73.99339
530,Suzuki Shokudo,38-01 31st St,11101,40.75353,-73.93184000000001
531,Barn Joo 35,34 W 35th St,10001,40.74964,-73.98581999999999
532,Shuya Cafe de Ramen,42-13 Broadway,11103,40.75800721,-73.91679397
533,Carmentas Italian Specialties,50 Starr St,11221,40.70114,-73.92676999999999
534,Mee Cafe,26 Rutgers St,10002,40.713053,-73.99021
535,Salvatoria Kitchen & Bar,31-18 Broadway,11106,40.76142,-73.92486
536,The Common,9406 3rd Ave,11209,40.61782,-74.03353
537,Streecha,33 E 7th St,10003,40.728496,-73.9889284
538,Taverna On The Bay,661 Bay St,10304,40.6259299,-74.0750599
539,Greedi Kitchen,1031 Bergen St,11216,40.6763513,-73.95232469999999
540,Ling Kee Beef Jerky,42 Canal St,10002,40.714659999999995,-73.99148000000001
541,GAUDir,251 E 110th St,10029,40.79359,-73.94093000000001
542,&pizza - NoMad,15 W 28th St,10001,40.745306,-73.98809920000001
543,Blue Ribbon Brasserie - SoHo,97 Sullivan St,10012,40.725456,-74.003027
544,Jujube Tree,35-02 30th Ave,11103,40.76512,-73.91821
545,Patzeria Family & Friends,311 W 48th St,10036,40.7615,-73.98754
546,Jean-Georges,1 Central Park W,10023,40.76911227,-73.98142907
547,Moe's Doughs Donut Shop,126 Nassau Ave,11222,40.724343100000006,-73.9484718
548,Steak Freak,50 St 6th Ave,10020,40.75455834,-73.98425339
549,The Hideout Chai Bar,42 Rivington St,10002,40.72097904,-73.99106244
550,The Dolar Shop,36-36 Prince St,11354,40.761057,-73.83306
551,Black Nile,592 Nostrand Ave,11216,40.67823,-73.94998000000001
552,Cafe Peanut,586 Newark Ave,7306,40.732359,-74.056997
553,Nurish,637 Washington Ave,11238,40.678340000000006,-73.96363000000001
554,Nizi Sushi,340 Paterson Ave,7073,40.83688451,-74.09949405
555,Roots Cafe,639 5th Ave,11215,40.662848499999996,-73.99168309999999
556,Chobani SoHo,152 Prince St,10012,40.72568955,-74.00105238
557,Allora Ristorante,145 E 47th St,10017,40.754329999999996,-73.97277
558,The Rock NYC,92-03 Rockaway Beach Blvd,11693,40.586228000000006,-73.81551
559,Peri Peri Grill House,235 Malcolm X Blvd,11233,40.684740000000005,-73.92916
560,Nish Nush,41 John St,10038,40.709472,-74.007949
561,Le Fond,105 Norman Ave,11222,40.72584152,-73.95110321
562,Proong Noodle Bar,347 1st Ave,10010,40.735279999999996,-73.98003
563,Sonbobs,34-15 28th Ave,11103,40.76736029999999,-73.91738199999999
564,Newtown,55 Waterbury St,11206,40.7091391,-73.93722679999999
565,Mountain Bird,2162 2nd Ave,10029,40.793819899999995,-73.9398521
566,Breakroom,83 Baxter St,10013,40.71669072,-73.99994401
567,Luke's Lobster FiDi,26 S William St,10004,40.7046213,-74.01077939
568,Village Square Pizza,147 Ave A,10009,40.72748,-73.98268
569,The Blue Stove,415 Graham Ave,11211,40.71745013,-73.94503356
570,Vida Verde,248 W 55th St,10019,40.7650089,-73.983215
571,La Sirène-Soho,558 Broome St,10013,40.72436422,-74.00570869
572,Trapizzino,144 Orchard St,10002,40.72043,-73.98894
573,Hot Space Grilled Fish,39-07 Prince St,11354,40.75975955,-73.83266803
574,Da Franco & Tony Ristorante,2815 Middletown Rd,10461,40.843635,-73.836135
575,Taladwat,714 9th Ave,10019,40.76262,-73.98935999999999
576,The Kebabci,259 Valley Blvd,7075,40.851111200000005,-74.08508379999999
577,Cafe Matisse,167 Park Ave,7070,40.82503,-74.10933
578,Gyu-Kaku Japanese BBQ,4052 Main St,11354,40.758159,-73.829822
579,Ends Meat,254 36th St,11232,40.656121999999996,-74.00763
580,White Maize,277 Smith St,11231,40.6824379,-73.99313354
581,The Drunken Munkey - UES,338 E 92nd St,10128,40.78098,-73.94751
582,KAL,34-05 30th Ave,11103,40.765840000000004,-73.91859000000001
583,Judge Roy Bean Public House,38 W 56th St,10019,40.76291581,-73.97612481
584,The Modern,9 W 53rd St,10019,40.761069899999995,-73.97709
585,Breads Bakery,18 E 16th St,10003,40.73661,-73.99181
586,Xinjiang BBQ Cart,41ST Ave,11355,40.758665,-73.82938399999999
587,My Pie Pizzeria Romana,690 Lexington Ave,10022,40.760851200000005,-73.96948090000001
588,La Vecina,30-66 Steinway St,11103,40.76232,-73.9165699
589,Pokébāb,209 Bedford Ave,11211,40.71683,-73.95866
590,The Harrow New York,720 10th Ave,10019,40.76419,-73.99181999999999
591,Williamsburg Smorgasburg - Saturday,90 Kent Ave,11211,40.721021,-73.962177
592,Natoli's,300 Clarendon St,7094,40.79508,-74.06316
593,Dark Bullet Sake & Oyster Bar,154 W 72nd St,10023,40.77807,-73.98079
594,Biga Contemporary Pizza,3 Clinton St,10002,40.72123,-73.98408
595,Harvest Cafe,694 New Dorp Ln,10306,40.56589,-74.10109
596,Lazy Siu's,742 Driggs Ave,11211,40.71261,-73.96077
597,Arcadia Bar & Kitchen,12-21 Astoria Blvd,11102,40.77235,-73.92922
598,Boucherie Union Square,225 Park Ave S,10003,40.73715,-73.98789000000001
599,Tony's Pizzeria & Restaurant,443 Knickerbocker Ave,11237,40.699286,-73.918724
600,Little Forno,276 Bay Ridge Ave,11220,40.63586215,-74.02665598
601,Vito's Slices and Ices,464 9th Ave,10018,40.7545,-73.99528000000001
602,Kochi,652 10th Ave,10036,40.76201,-73.99351
603,Yafa Cafe,4415 4th Ave,11220,40.64938,-74.00925
604,Dulce De Leche Bakery,6510 Bergenline Ave,7093,40.7933,-74.0126
605,Sushi Nonaka,410 Amsterdam Ave,10024,40.783671999999996,-73.97834300000001
606,Wafels & Dinges,Broadway & 66th St,10023,40.773826,-73.982199
607,TONCHIN NEW YORK,13 W 36th St,10018,40.750272700000004,-73.98449509999999
608,Bubo,515 3rd Ave,10016,40.745979999999996,-73.97753
609,Spring Cafe,153D Centre St,10013,40.71792,-74.00021
610,LoveMama,174 2nd Ave,10003,40.7303859,-73.9860613
611,Daesung Korean Noodle,45-04 162nd St,11358,40.756159999999994,-73.80484
612,Parisi Bakery,198 Mott St,10012,40.7211836,-73.9954365
613,Rincon Criollo,40-09 Junction Blvd,11368,40.7489644,-73.8690814
614,Karczma,136 Greenpoint Ave,11222,40.729977000000005,-73.955128
615,Green Recipes,147-16 45th Ave,11355,40.75541870000001,-73.8146905
616,Trademark Taste + Grind,38 W 36th St,10018,40.75032339,-73.98555663
617,Veggie Castle II,13209 Liberty Ave,11419,40.6908513,-73.81380938
618,Baciccia Pizza e Cucina,426A 7th Ave,11215,40.663816,-73.98448
619,Hot Space,774 51st St,11220,40.640679999999996,-74.00476
620,Tanoshi Sushi Sake Bar,1372 York Ave,10021,40.767568,-73.952815
621,Rocco Steakhouse,72 Madison Ave,10016,40.7438607,-73.9861214
622,Smile of the Beyond,8614 Parsons Blvd,11432,40.7091044,-73.80471990000001
623,Alfalfa,1110 Washington St,7030,40.750479999999996,-74.02725
624,Xixa,241 S 4th St,11211,40.7104,-73.95854
625,L'albero Dei Gelati,341 5th Ave,11215,40.671932,-73.9836569
626,Rizzo Bakery,208 Central Ave,7307,40.74173,-74.05210600000001
627,Vito's Italian Deli,806 Washington St,7030,40.746359999999996,-74.0284
628,Mumbai Masala,1768 Amsterdam Ave,10031,40.82695,-73.94676
629,Fork Hill Kitchen,201 16th St,7087,40.76092,-74.03264
630,Akino,82-80 Broadway,11373,40.741178399999995,-73.8814239
631,Sushumai Asian Fusion,112 Stanton St,10002,40.72116107,-73.98728661
632,Casa Del Chef Bistro,39-06 1/2 64th St,11377,40.746291,-73.900092
633,Halalish,41-17 Main St,11355,40.757774299999994,-73.8290814
634,Jardino Restaurant,1159 3rd Ave,10065,40.76686,-73.96249
635,Lamoon,8140 Broadway,11373,40.74289025,-73.88303401
636,Del Frisco's Double Eagle Steakhouse,1221 Ave Of The Americas,10020,40.759412,-73.982221
637,Oceanic Boil,84-20 37th Ave,11372,40.7498297,-73.8821356
638,bwè kafe,1002 Washington St,7030,40.74872553,-74.02751036
639,Lovin' Today,257 Valley Blvd,7075,40.8511,-74.08525
640,The Halal Guys,W 53rd St 6th Ave,10019,40.76477,-73.98614
641,Intersect by Lexus - NYC,412 W 14th St,10014,40.74115,-74.00624
642,Fishmarket Restaurant,111 South St,10038,40.70717,-74.00192
643,The Jin,856 10th Ave,10019,40.768541,-73.988734
644,Meet The Meat,2392 21st St,11105,40.7769295,-73.9214427
645,Adoro Lei,287 Hudson St,10013,40.725612,-74.00791600000001
646,Mariella,492 6th Ave,11215,40.6662419,-73.985749
647,Prince & I,80 Wayne St,7302,40.7198,-74.04576
648,Tanner Smiths,204 W 55th St,10019,40.76442,-73.98169
649,Colina Cuervo,759 Nostrand Ave,11216,40.67132439,-73.95030357
650,Taqueria al Pastor,128 Wyckoff Ave,11237,40.703326000000004,-73.918029
651,Dun Huang - East Village,300 E 12th St,10003,40.73081,-73.98568
652,My Sushi,7920 Eliot Ave,11379,40.72480798,-73.87933738
653,Seva Indian Cuisine,3007 34th St,11103,40.7653633,-73.9191014
654,Balade - Your Way,144 West 37th St,10018,40.75242996,-73.98872375
655,Housing Works Bookstore Café & Bar,126 Crosby St,10012,40.724540000000005,-73.9965931
656,The Bosphorus,226 Franklin Ave,7110,40.81526269,-74.16181628
657,Omani,160-42 Willets Point Blvd,11357,40.780535,-73.801869
658,Cafe Mogador,133 Wythe Ave,11211,40.719747,-73.95999300000001
659,Cemitas El Tigre,45-14 48th Ave,11377,40.739191299999995,-73.9198491
660,Omar's Mediterranean East Midtown,154 E 55th St,10022,40.75905,-73.969273
661,Boris & Horton,195 Ave A,10009,40.729259899999995,-73.98138
662,SIMÒ PIZZA,90-92 Gansevoort St,10014,40.73925976,-74.00881307
663,Doaba Deli,945 Columbus Ave,10025,40.7994,-73.9624
664,K Rico Steakhouse,772 9th Ave,10019,40.764345,-73.98798000000001
665,NORMA Gastronomia Siciliana,438 3rd Ave,10016,40.743553000000006,-73.980026
666,Gabriel Kreuther,41 W 42nd St,10036,40.754546000000005,-73.982556
667,Little Collins,667 Lexington Ave,10022,40.759912,-73.96964
668,Momofuku Ko,8 Extra Pl,10003,40.724776,-73.991682
669,Umi Sushi,177-13 Union Tpke,11366,40.72619833,-73.79067063
670,Buntopia,994 Broadway,11221,40.69598,-73.93398
671,Spice Symphony,150 E 50th St,10022,40.75589371,-73.97153473
672,Mitsuwa Marketplace,595 River Rd,7020,40.81581076,-73.98012461
673,Benjamin Prime,23 E 40th St,10016,40.751493599999996,-73.97984968
674,Belle Harlem,2363 Adam Clayton Powell Blvd,10030,40.8173,-73.94171
675,Chef's Table at Brooklyn Fare,431 W 37th St,10018,40.75619308,-73.99660909
676,Andris Cuban Sandwich King,484 Stuyvesant Ave,7071,40.8091485,-74.1297321
677,Bang Cookies,1183 Summit Ave,7307,40.75567,-74.04607
678,Pause Cafe,3 Clinton St,10002,40.72123,-73.98408
679,Fish Cheeks,55 Bond St,10012,40.7258,-73.9927
680,Sashimi Express II,223 E 74th St,10021,40.77068,-73.95849
681,Pates Et Traditions,52 Havemeyer St,11211,40.714884999999995,-73.954698
682,Ramen Ishida,122 Ludlow St,10002,40.71962979999999,-73.988366
683,Pommes Frites,128 Macdougal St,10012,40.730022,-74.000152
684,Camellia,155 3rd Ave,10003,40.73415,-73.98633000000001
685,Rombiolo Bakery Cafe,119 Broughton Ave,7003,40.814574,-74.1867955
686,The MasalaWala,179 Essex St,10002,40.72191,-73.98666
687,Bigoi Venezia,1415 2nd Ave,10021,40.770036,-73.9577755
688,Taqueria Tlaxcalli,2103 Starling Ave,10462,40.836240000000004,-73.854962
689,Tacos El Bronco II,White Plains Rd & Lydig Ave,10462,40.85453,-73.86769
690,Menkoi Sato,7 Cornelia St,10014,40.73165366,-74.00170224
691,Tomiño Taberna Gallega,192 Grand St,10013,40.71929789,-73.99691604
692,The Blue Light Speak Cheesy,1112 Bedford Ave,11216,40.686655,-73.95481600000001
693,Taiyaki NYC - Williamsburg,294 Bedford Ave,11249,40.7143691,-73.9615536
694,Leo's Deli Sandwich Shop,1153 Forest Ave,10310,40.626865,-74.12849399999999
695,Madre,214 Franklin St,11222,40.733109999999996,-73.95798
696,Los Tacos No. 1,136 Church St,10007,40.714282,-74.008675
697,Tavern 157,157-12 Northern Blvd,11354,40.76348364,-73.80781728
698,Rubirosa,235 Mulberry St,10012,40.722766,-73.99623299999999
699,Hooked JC,467 Communipaw Ave,7304,40.71469308,-74.06707087
700,Bobwhite Counter,150 Warren St,7302,40.71230846,-74.03984246
701,Taco Mahal,73 7th Ave S,10014,40.732337,-74.003303
702,Ninja Sushi,75 Washington Ave,7110,40.80893921,-74.14705793
703,The Jolly Goat Coffee Bar,515 W 47th St,10036,40.76337888,-73.99392114
704,Porto Salvo,424 E 161st St,10451,40.823679999999996,-73.91294
705,Matthew's Italian Restaurant,1131 Bloomfield Ave,7012,40.83903539,-74.16168666
706,Sake kawa,32-05 36th Ave,11106,40.7563,-73.92855
707,Sabry's,2425 Steinway St,11103,40.76828,-73.91105999999999
708,Adel's Famous Halal Food,49th & 6th,10019,40.763940000000005,-73.99193000000001
709,El Kallejon,209 E 117th St,10035,40.798538,-73.938805
710,51st Bakery and Cafe,5-33 51st Ave,11101,40.74227655,-73.95533092
711,The Wild Son,132 First Ave,10009,40.7274064,-73.98514229999999
712,Carmines Italian Deli,165 Mallory Ave,7304,40.72018,-74.08793
713,Astoria Seafood and Grill,25-79 Steinway St,11103,40.765859999999996,-73.91304000000001
714,Samakmak Seafood,772 Westside Ave,7306,40.72675,-74.07624
715,Tea and Milk,32-02 34th Ave,11106,40.75904,-73.92631
716,Galata Mediterranean Cuisine,212 E 34th St,10016,40.745309999999996,-73.97753
717,Amélie,22 W 8th St,10011,40.7327,-73.99766
718,Pocion,704 W 177th St,10033,40.84757494,-73.93843095
719,Ñaño Ecuadorian Kitchen,691 10th Ave,10036,40.7631,-73.99335
720,Panino Rustico,8222 17th Ave,11214,40.610494,-74.003153
721,Happy Zoe Vegan Bakery,102 B Nassau Ave,11222,40.724233,-73.949646
722,Santiago's Beer Garden,2337 1st Ave,10035,40.79849,-73.93382
723,Prato Bakery,371 4th St,7302,40.724389,-74.051179
724,Despaña Queens,408 Broome St,10013,40.721094,-73.9978255
725,The Breakfast Shack,30th St & 30th Ave,11102,40.76716414,-73.92247094
726,Lagman House,2612 E 14th St,11235,40.587559999999996,-73.95548000000001
727,Benson's NYC,181 Essex St,10002,40.7218302,-73.9866963
728,Yanni’s Coffee,96 7th Ave,10011,40.7397792,-73.99897259999999
729,Bin 5,1233 Bay St,10305,40.613335,-74.065258
730,Yemen Cafe & Restaurant,176 Atlantic Ave,11201,40.68991679999999,-73.99365618
731,The KOVA,1775B Richmond Rd,10306,40.587346000000004,-74.104111
732,Cheeky Sandwiches,35 Orchard St,10002,40.7158,-73.99169
733,ShabuRo,520 Bergen Blvd,7650,40.848059899999996,-73.98447
734,Ginjan,85 E 125th St,10035,40.8053795,-73.93922377
735,"Ciao, Gloria",550 Vanderbilt Ave,11238,40.6804,-73.96822
736,Rome to Brooklyn Pizza,755 Grand St,11211,40.711870000000005,-73.94283
737,Manhatta,28 Liberty St,10005,40.70797,-74.00889000000001
738,Whealth Kitchen,615 Pavonia Ave,7306,40.732409000000004,-74.06106899999999
739,Ras Plant Based,739 Franklin Ave,11238,40.67341,-73.956712
740,Red Poke,600 9th Ave,10036,40.758899299999996,-73.991915
741,Traif,229 S 4th St,11211,40.710658,-73.958872
742,Bua Thai Ramen & Robata Grill,1611 2nd Ave,10028,40.77635,-73.95308
743,Heidi's House By The Side Of The Road,308 E 78th St,10075,40.772189000000004,-73.95502900000001
744,Dear Mama Coffee,308 E 109th St,10029,40.79227,-73.94062
745,SoleLuna Restaurant,40-01 Queens Blvd,11104,40.74399345,-73.92404214
746,Royal 35 Steakhouse,1 E 35th St,10016,40.74897,-73.98348
747,Mordi's Sandwich Shop,320 Communipaw Ave,7304,40.71042,-74.06105
748,Express Halal Food,Jamaica Ave,11421,40.69262,-73.85743000000001
749,Ocean Prime,123 W 52nd St,10019,40.76173,-73.98063
750,Aqua Boil,750 9th Ave,10019,40.763702,-73.988386
751,Sathi,216 3rd Ave,10003,40.73621,-73.98528
752,Angel Indian Restaurant,7414 37th Rd,11372,40.74730692,-73.89128141
753,Philomena's,41-16 Queens Blvd,11104,40.7432,-73.92275
754,Thai Farm Kitchen,416 Church Ave,11218,40.64404175,-73.97605184
755,SOKONGDONG Grill Lighthouse,261 Broad Ave,7022,40.8229,-74.00914
756,Cipollina Gourmet,116-09 Queens Blvd,11375,40.71613715,-73.83314171
757,Tikka Indian Grill,34-14 30th Ave,11103,40.76534,-73.91868000000001
758,Mi Mariachi Taqueria,213 Sip Ave,7306,40.731559999999995,-74.06974
759,Voyager Espresso,110 William St,10038,40.708872,-74.006695
760,Arepa Lady,77-17 37th Ave,11372,40.74948962,-73.88826884
761,Anthony's Cheesecake,71 Washington St,7003,40.7937,-74.19891
762,Nish Nush,88 Reade St,10013,40.715688,-74.007695
763,Fresco Gelateria,138 2nd Ave,10003,40.72881821,-73.98725189
764,Diller,357 Grand St,10002,40.716465,-73.989078
765,Domodachi,300 Union Ave,7070,40.83600327,-74.11293302
766,Tambour,652 5th Ave,11215,40.662504,-73.992533
767,Giovannis Deli,267 Centre Ave,7094,40.792159999999996,-74.06426
768,Manousheh,193 Bleecker St,10012,40.7293499,-74.00134
769,Eleven Madison Park,11 Madison Ave,10010,40.74169074,-73.98720749
770,Dai Hachi Sushi,46-18 Vernon Blvd,11101,40.74633,-73.95319
771,Silver Factory,270 South 5th St,11211,40.709227,-73.958598
772,Ki Sushi,282 Flatbush Ave,11217,40.67844177,-73.97343943
773,Terravita,4193 Broadway,10033,40.84807,-73.93803
774,Sushi Ishikawa,419 E 74th St,10021,40.768783,-73.95389809999999
775,Shu Jiao Fu Zhou Cuisine Restaurant,118 Eldridge St,10002,40.71842904,-73.9916929
776,Rosario's,2255 31st St,11105,40.77499147,-73.9119817
777,Bohemian Restaurant,57 Great Jones St,10012,40.72639,-73.99235999999999
778,Peng's Noodle Folk,1659 1st Ave,10028,40.77726,-73.94932
779,Bar Crudo,412 Fifth Ave,11215,40.670226,-73.98576800000001
780,L'Artusi,228 W 10th St,10014,40.73372,-74.00513000000001
781,Liberty Bagels Midtown,260 W 35th St,10001,40.75255,-73.99249
782,Brooklyn Beet Company,7205 3rd Ave,11209,40.6333416,-74.02687409999999
783,Pinwheel Garden Dumpling & Noodle Bar,318 Communipaw Ave,7304,40.710390000000004,-74.06102
784,Meet Noodles,50 3rd Ave,10003,40.731041999999995,-73.989207
785,Wayla,100 Forsyth St,10002,40.7183,-73.9926038
786,Paratha Wala,103-09 Metropolitan Ave,11375,40.710440000000006,-73.84942
787,Golden Diner,123 Madison St,10002,40.71244,-73.994
788,Cafe Katja,79 Orchard St,10002,40.7177673,-73.990589
789,Marani,97-26 63rd Rd,11374,40.731202,-73.859833
790,Brooklyn Kolache,520 Dekalb Ave,11205,40.69079131,-73.95564795
791,Pi Bakerie,512 Broome St,10013,40.72361,-74.00329
792,Sotto Le Stelle,4407 Queens Blvd,11104,40.743656,-73.9201782
793,Tuscany Steakhouse,117 West 58 St,10019,40.76546,-73.97724000000001
794,Govinda's Vegetarian,305 Schermerhorn St,11217,40.687709999999996,-73.98241
795,Beets and Carrots,9905 3rd Ave,11209,40.614109899999995,-74.03489
796,Tara Rose,384 3rd Ave,10016,40.74176,-73.98123000000001
797,Julia's,818 Woodward Ave,11385,40.703143,-73.902956
798,Sliced,264 W 35th St,10001,40.752551200000006,-73.992769
799,Sapori D'Italia,105 Mulberry St,10013,40.71735,-73.99855
800,Tops Diner,500 Passaic Ave,7029,40.750608,-74.163974
801,The Seafire Grill,158 E 48th St,10017,40.75470121,-73.97225551
802,Sama Street,988 Manhattan Ave,11222,40.7328843,-73.95452323
803,Divya's Kitchen,25 1st Ave,10003,40.72378,-73.98849
804,Pisillo Italian Panini - Chelsea,124 W 25th St,10001,40.74455,-73.99299
805,Wich- One,529 Anderson Ave,7010,40.82267,-73.99023000000001
806,Sabor Unido,77 Jefferson St,7105,40.730542,-74.16115500000001
807,Club A Steakhouse,240 E 58th St,10022,40.760059999999996,-73.96557
808,Simple NYC,109 Eldridge St,10002,40.71821,-73.99223
809,Amaranto Mexican Restaurant,887 Hart St,11237,40.703111,-73.921892
810,Ceremonia Bakeshop,743 Driggs Ave,11211,40.7125,-73.96056
811,Upstate Craft Beer & Oyster Bar,95 1st Ave,10003,40.726372999999995,-73.98655699999999
812,Yumpling,"New York, NY 10020",10020,40.76026917,-73.98019409
813,Bistro Eloise,75-57 31st Ave,11370,40.758733500000005,-73.8920429
814,Napoli Wood Fired Pizza & Bakery,702 Anderson Ave,7010,40.82846,-73.98608
815,Raku,342 E 6th St,10003,40.72649881,-73.98665261
816,Merzouka,2914 Crescent St,11102,40.768973200000005,-73.9249925
817,Wah Fung No 1,79 Chrystie St,10002,40.71735,-73.99457
818,Beyond Sushi,62 W 56th St,10019,40.76331,-73.97717
819,Wafels & Dinges,"New York, NY 10011",10011,40.73928452,-73.99893188
820,Sottocasa Pizzeria - Harlem,227 Lenox Ave,10027,40.805587,-73.947547
821,Tofubox,632 Grand St,11211,40.71125,-73.9468
822,MangiPasta,608 E 187th St,10458,40.855270000000004,-73.88731
823,Bunna Cafe,1084 Flushing Ave,11237,40.705042,-73.928078
824,Ssam Tong,41-08 149th Pl,11355,40.76206795,-73.8147189
825,Lakruwana,668 Bay St,10304,40.62571,-74.075373
826,Fiorito's Bella Famiglia,725 Forest Ave,10310,40.629544,-74.11323399999999
827,Taim West Village,222 Waverly Pl,10014,40.73600238,-74.00195884
828,Il Bambino,34-08 31st Ave,11106,40.762809999999995,-73.92089
829,Fabio Cucina Italiana,214 E 52nd St,10022,40.75667,-73.96911999999999
830,Pure Ktchn,352 West 46th St,10036,40.760529999999996,-73.98992
831,Trattoria L'incontro,21-76 31st St,11105,40.77633304,-73.91058683
832,JoJu,83-25 Broadway,11373,40.74070517,-73.87935018
833,Beyond Sushi,134 West 37th St,10018,40.75247,-73.98845
834,Ruby's Cafe,198 E 11th St,10003,40.730932,-73.988061
835,The Casbah - Halal Cart,66th St & Columbus Ave,10023,40.77373719,-73.98171365
836,Soothr,204 E 13th St,10003,40.732318,-73.9873417
837,Amelie,566 Amsterdam Ave,10024,40.78875,-73.97464000000001
838,Tofu Tofu,96 Bowery,10013,40.71762995,-73.99543013
839,Juliana's Pizza,19 Old Fulton St,11201,40.7026153,-73.993416
840,Boucherie West Village,99 7th Ave S,10014,40.733063,-74.0028772
841,NY Dosas,50 Washington Sq S,10014,40.73083861,-73.9986378
842,Hero King - Nutley,132 Franklin Ave,7110,40.812490000000004,-74.164
843,Tableside Italian Cook Shoppe,345 E 6th St,10003,40.7266287,-73.98633840000001
844,Up Thai,1411 2nd Ave,10021,40.76982759,-73.95763309
845,Indika House,943 Broadway,11206,40.69716,-73.9353
846,Coney Shack,1500 Broadway,10036,40.756776,-73.98566
847,Stone Bridge Pizza & Salad,16 E 41st St,10017,40.75225,-73.98061
848,Calle Dao Chelsea,461 W 23RDST,10011,40.74761383,-74.00354962
849,Ding Food Market,241 Harrison Ave,7029,40.74618238,-74.15841749
850,The Food Sermon Kitchen,141 Flushing Ave,11205,40.6985551,-73.97120290000001
851,Per Se,10 Columbus Cir,10019,40.76815289,-73.98276296
852,Ruffian,125 E 7th St,10009,40.7264,-73.98411
853,Square 1,283 St Pauls Ave,7306,40.7376095,-74.0647848
854,Tava Turkish Mediterranean,318 5th Ave,11215,40.673165000000004,-73.983292
855,Kura,130 St Marks Pl,10009,40.726709,-73.98357940000001
856,Tap Haus 33,14 E 33rd St,10016,40.747246999999994,-73.9843
857,Lombardo's of Bay Ridge,279 71st St,11209,40.634741,-74.0284259
858,L'Appart,225 Liberty St,10281,40.712708,-74.015919
859,La Morada,308 Willis Ave,10454,40.810552,-73.92142
860,Top Thai Vintage,55 Carmine St,10014,40.729946999999996,-74.004227
861,Bucket & Bay Craft Gelato,150 Bay St,7302,40.72081629,-74.04016055
862,Kudo Society Cafe,138 W Central Blvd,7650,40.85112,-74.00307
863,The Simone,151 E 82nd St,10028,40.77682,-73.95698
864,Kati Shop,162 E 55th St,10022,40.758990000000004,-73.96883000000001
865,La Parisienne,9 Maiden Ln,10038,40.70961,-74.00937990000001
866,Ray's Candy Store,113 Avenue A,10009,40.72627762,-73.98357075
867,Lowerline,794 Washington Ave,11238,40.674209999999995,-73.96324
868,Buena Vista Restaurant & Bar,536 9th Ave,10018,40.756859999999996,-73.99356
869,Chicken Insider,1752 2nd Ave,10128,40.781226000000004,-73.949085
870,969 NYC Coffee,37-61 80th St,11372,40.74779,-73.88553
871,Le Bernardin,155 W 51st St,10019,40.761557,-73.981763
872,Louie's Pizza,81-34 Baxter Ave,11373,40.7459,-73.8834
873,DiSO's Italian Sandwich Society,"New York, NY 10017",10017,40.75273233,-73.97050906
874,Secchu Yokota,199 E 3rd St,10009,40.72283,-73.98311
875,Birria-Landia,Roosevelt Ave & 78th St,11372,40.747258,-73.887784
876,Zusik,202 W 14th St,10011,40.738532,-74.00036800000001
877,Nefista Vegan Kofteh,656 Anderson Ave,7010,40.826537,-73.98705799999999
878,Ba Xuyen,4222 8th Ave,11232,40.64528,-73.9997099
879,Pado,199 2nd Ave,10003,40.7314,-73.98589
880,El Mate,550 Court St,11231,40.67497822,-73.99952249
881,Tramezzini NYC,309 E Houston,10002,40.72118484,-73.98347273
882,Da Tang Szechuan,18 W 38th St,10018,40.75128,-73.98376
883,Antonio's Trattoria,2370 Belmont Ave,10458,40.854131,-73.886601
884,Zen Ramen & Sushi,150 W 36th street,10018,40.75185,-73.98892
885,Raku,48 Macdougal St,10012,40.72728,-74.00251999999999
886,Bengal Tiger Indian Food,58 W 56th St,10019,40.763166999999996,-73.977131
887,El Tango Argentina Grill,35 Moonachie Rd,7074,40.84235,-74.04442
888,Emma's Torch,345 Smith St,11231,40.679959999999994,-73.99478
889,Obaltan,799 Abbot Blvd,7024,40.831469399999996,-73.9829498
890,Don Angie,103 Greenwich Ave,10014,40.73778,-74.00197
891,Thursday Kitchen,424 E 9th St,10009,40.7275,-73.9838
892,Thai Villa,5 E 19th St,10003,40.739020000000004,-73.99065
893,Cascalote Latin Bistro,2126 2nd Ave,10029,40.79271,-73.94069
894,Prince Street Pizza,27 Prince St,10012,40.72290877,-73.99448633
895,POST,42 Ave B,10009,40.72298,-73.98302
896,Sahadi's,187 Atlantic Ave,11201,40.690218,-73.993367
897,Spicy Moon East Village,328 E 6th St,10003,40.72674,-73.98722
898,Suprema,92 Park Ave,7070,40.82743835,-74.10479736
899,Bar B,84 7th Ave,10011,40.7395804,-73.99911800000001
900,Loi Estiatorio,132 W 58th St,10019,40.765384999999995,-73.978002
901,Confectionery,440 E 9th St,10009,40.72732,-73.98305
902,Mysttik Masaala,21-77 31st St,11105,40.77647258,-73.91064578
903,Haswell Green's,240 W 52nd St,10019,40.763009999999994,-73.98416
904,Laojie Hotpot,811 53rd St,11220,40.63897093,-74.00468469
905,Pita Point,508 Marion St,11233,40.681779999999996,-73.90916
906,Faicco's Italian Specialties,260 Bleecker St,10014,40.73113,-74.00305999999999
907,M & P Biancamano,1116 Washington St,7030,40.750659999999996,-74.02719
908,Top Thai Greenwich,235 Sullivan St,10012,40.729771,-73.999392
909,Orchard Grocer,78 Orchard St,10002,40.717744,-73.990187
910,B Side Pizza & Wine Bar,370 W 51st St,10019,40.763940000000005,-73.98833990000001
911,Näna Good Eats,152-67A 10th Ave,11357,40.79393701,-73.8078447
912,KazuNori  | The Original Hand Roll Bar,15 W 28th St,10001,40.74519,-73.98824
913,Prospect Provisions,597 4th Ave,11215,40.66499389,-73.99305404
914,Samurai Sushi,245 Paterson Ave,7073,40.83398915,-74.09750596
915,Pisillo Italian Panini,97 Nassau St,10038,40.710558,-74.007594
916,Sami's Kabab House,35-57 Crescent St,11106,40.7587874,-73.93264350000001
917,Crema,695 Bergen Ave,7304,40.72389201,-74.07036854
918,Pomp & Circumstance Dining,577 Lorimer St,11211,40.714166,-73.949612
919,Sushi By M,75 E 4th St,10003,40.726659999999995,-73.99027
920,Jajaja Plantas Mexicana,162 E Broadway,10002,40.71415303,-73.9904248
921,Lillo Cucina Italiana,331 Henry St,11201,40.69023,-73.99634
922,Sai,95-34 Queens Blvd,11374,40.73012,-73.8636
923,Bushwick Grind,63 Whipple St,11206,40.70167,-73.944455
924,Song E Napule,146 W Houston St,10012,40.72813,-74.00188
925,Cuomo And Sons,7709 Broadway,7047,40.79803,-74.00219
926,Yaar Indian Restaurant,22-55 31st St,11105,40.77480303,-73.9120166
927,PROOF Coffee Roasters,335 E 27th St,10016,40.73985,-73.97742
928,MTHR Vegan,329 W 49th St,10019,40.762409999999996,-73.98806
929,SalaThai Restaurant,307 Amsterdam Ave,10023,40.780119899999995,-73.98031999999999
930,Best Bagel & Coffee,225 W 35th St,10001,40.7522683,-73.99108609999999
931,The Family Store,6905 3rd Ave,11209,40.63544,-74.02600000000001
932,Daniel,60 E 65th St,10065,40.76677368,-73.967607
933,Nicandra's,264 Irving Ave,11237,40.69962,-73.915939
934,THEP Thai Restaurant,1439 2nd Ave,10021,40.77078,-73.95727
935,My Cuban Spot,488 Carroll St,11215,40.67690863,-73.98615382
936,The Calaveras,949 Columbus Ave,10025,40.79956,-73.96240999999999
937,Beyond Sushi,229 E 14th St,10003,40.7329,-73.98588000000001
938,Brooklyn Blend,194 Tompkins Ave,11206,40.69235757,-73.9457687
939,La Contenta,102 Norfolk St,10002,40.71873,-73.98691
940,Piccante,7214-A 3rd Ave,11209,40.63319,-74.02741999999999
941,Gossip House,147-46 Northern Blvd,11354,40.76519545,-73.81751908
942,Gramercy Tavern,42 E 20th St,10003,40.738440000000004,-73.98825
943,Dutch Freds,307 W 47th St,10036,40.760835,-73.98782299999999
944,Newyorktitlan,1525 Gates Ave,11237,40.699050899999996,-73.91294098
945,DeStefano's Steakhouse,89 Conselyea St,11211,40.71503,-73.94767
946,Jungsik,2 Harrison St,10013,40.71859102,-74.00888443
947,Benyam Cuisine,2795 Frederick Douglas Blvd,10039,40.82522,-73.94058000000001
948,Chela Modern Mexican,408 5th Ave,11215,40.670320000000004,-73.98569
949,Addictive Wine and Tapas Bar,87-01 Northern Blvd,11372,40.75632,-73.8806
950,Otis,18 Harrison Pl,11206,40.706011,-73.932598
951,Taste of Heaven,251 Jackson St,11211,40.717115,-73.940613
952,The Alcove,41-11 49th St,11104,40.7459065,-73.915103
953,Anytime,23 W 32nd St,10001,40.74779,-73.98674
954,Korai Kitchen,576 Summit Ave,7306,40.733896,-74.059151
955,Frenchy's Food Truck,341 Eastern Pkwy,11238,40.67069884,-73.95779841
956,Panzerotti Bites,235 Smith St,11231,40.683715,-73.99226999999999
957,Los Tacos No.1,229 W 43rd St,10036,40.7575067,-73.98777170000001
958,Hold Fast Kitchen and Spirits,364 W 46th St,10036,40.76064,-73.99023000000001
959,Scott's Pizza Tours,"New York, NY 10001",10001,40.75024414,-73.99702454
960,Andrea Salumeria,247 Central Ave,7307,40.74355,-74.0514
961,L'industrie Pizzeria,254 S 2nd St,11211,40.71162,-73.95783
962,Royal Grill Halal Food,44TH St And 6th Ave,10018,40.75614,-73.98316
963,Joey Bats Café,129 Allen St,10002,40.72006,-73.99037
964,Green Juice Cafe,4316 Broadway,10033,40.85188,-73.9346599
965,Koroni Souvlaki and Grill,29-37 Newtown Ave,11102,40.768544,-73.92121
966,Tony's Beechhurst Deli,1118 154th St,11357,40.7917673,-73.80748270000001
967,Cafe Talya,218 Ave B,7002,40.68448857,-74.10734971
968,"Sal, Kris, & Charlie's Deli",33-12 23rd Ave,11105,40.77332688,-73.91138077
969,Haidilao Hotpot,138-23 39th Ave,11354,40.761263299999996,-73.82803009999999
970,Los Tacos No.1,75 9th Ave,10011,40.7425547,-74.0060838
971,Coffee Project New York,239 E 5th St,10003,40.72699,-73.98921999999999
972,Madame Poupon,387A Nostrand Ave,11216,40.6844653,-73.9502516
973,Pita Palace,413 Graham Ave,11211,40.7172485,-73.9448511
974,Dian Kitchen,435 E 9th St,10009,40.72772,-73.98321
975,Second Street Bakery,402 2nd St,7302,40.72338,-74.05134
976,Sushi by Bou Times Square,132 W 47th St,10036,40.75851,-73.98321999999999
977,Mr. Jones Supper Club,22 Jones St,10014,40.731781899999994,-74.0025704
978,Tres Leches Cafe,356 E 112th St,10029,40.79356,-73.93778
979,Joe's Italian Deli,685 E 187th St,10458,40.8544073,-73.88487509999999
980,191 Knickerbocker,191 Knickerbocker Ave,11237,40.703920000000004,-73.92683000000001
981,Baba's Pierogies,295 3rd Ave,11215,40.67687,-73.98633000000001
982,Casa d'Paco,73 Warwick St,7105,40.72529,-74.16309
983,Lella Alimentari,325 Manhattan Ave,11211,40.71516,-73.946451
984,Abuqir Seafood,24-19 Steinway St,11103,40.7683,-73.9110794
985,4 Charles Prime Rib,4 Charles St,10014,40.73513,-74.00065
986,Los Mariscos,409 W 15th St,10011,40.74207,-74.00565
987,Fiore Deli of Hoboken,414 Adams St,7030,40.74301,-74.03626
988,Kick Axe Throwing,622 Degraw St,11217,40.679026799999995,-73.98307700000001
989,Sushi Lin,335 Flatbush Ave,11217,40.677786,-73.97259100000001
990,Lim's Kitchen,38-40 Crescent St,11101,40.75497,-73.93692
991,Mysttik Masaala,399 Park Ave,10022,40.75932,-73.97209000000001
992,Casa Della Mozzarella Italian Deli,604 E 187th St,10458,40.85533,-73.88741999999999
993,Griot Cafe,434 Central Ave,7307,40.749556,-74.04663552
994,Maxi’s Noodle,135-11 38th Ave,11354,40.76052,-73.83227
995,Yia Yia's Taverna,1035 Flushing Ave,11237,40.70401,-73.93086
996,Mughlai Grill,6 Clinton St,10002,40.7210905,-73.9840446
997,Non Solo Piada,302 W 37th St,10018,40.75414,-73.99245
998,Sorriso Italian Pork Store,4416 30th Ave,11103,40.7621401,-73.9116109
999,Forma Pasta Factory,14 Bedford Ave,11222,40.72371,-73.95156999999999
